[{"zipcode":"94061","city":"Redwood City","state":"CA","lat":"37.4647","long":"-122.2304"},{"zipcode":"94062","city":"Redwood City","state":"CA","lat":"37.4245","long":"-122.296"},{"zipcode":"94063","city":"Redwood City","state":"CA","lat":"37.4815","long":"-122.2091"},{"zipcode":"94064","city":"Redwood City","state":"CA","lat":"37.3811","long":"-122.3348"},{"zipcode":"94065","city":"Redwood City","state":"CA","lat":"37.5331","long":"-122.2486"},{"zipcode":"94303","city":"Palo Alto","state":"CA","lat":"37.4673","long":"-122.1388"},{"zipcode":"94401","city":"San Mateo","state":"CA","lat":"37.5735","long":"-122.3225"},{"zipcode":"94402","city":"San Mateo","state":"CA","lat":"37.5507","long":"-122.3276"},{"zipcode":"94403","city":"San Mateo","state":"CA","lat":"37.5395","long":"-122.2998"},{"zipcode":"94404","city":"San Mateo","state":"CA","lat":"37.5538","long":"-122.27"},{"zipcode":"94497","city":"San Mateo","state":"CA","lat":"37.5347","long":"-122.3259"},{"zipcode":"94022","city":"Los Altos","state":"CA","lat":"37.3814","long":"-122.1258"},{"zipcode":"94023","city":"Los Altos","state":"CA","lat":"37.3852","long":"-122.1141"},{"zipcode":"94024","city":"Los Altos","state":"CA","lat":"37.3547","long":"-122.0862"},{"zipcode":"94035","city":"Mountain View","state":"CA","lat":"37.3861","long":"-122.0839"},{"zipcode":"94039","city":"Mountain View","state":"CA","lat":"37.3861","long":"-122.0839"},{"zipcode":"94040","city":"Mountain View","state":"CA","lat":"37.3855","long":"-122.088"},{"zipcode":"94041","city":"Mountain View","state":"CA","lat":"37.3893","long":"-122.0783"},{"zipcode":"94042","city":"Mountain View","state":"CA","lat":"37.3861","long":"-122.0839"},{"zipcode":"94043","city":"Mountain View","state":"CA","lat":"37.4056","long":"-122.0775"},{"zipcode":"94085","city":"Sunnyvale","state":"CA","lat":"37.3886","long":"-122.0177"},{"zipcode":"94086","city":"Sunnyvale","state":"CA","lat":"37.3764","long":"-122.0238"},{"zipcode":"94087","city":"Sunnyvale","state":"CA","lat":"37.3502","long":"-122.0349"},{"zipcode":"94088","city":"Sunnyvale","state":"CA","lat":"37.3688","long":"-122.0363"},{"zipcode":"94089","city":"Sunnyvale","state":"CA","lat":"37.3983","long":"-122.0006"},{"zipcode":"94301","city":"Palo Alto","state":"CA","lat":"37.4443","long":"-122.1497"},{"zipcode":"94302","city":"Palo Alto","state":"CA","lat":"37.4419","long":"-122.143"},{"zipcode":"94304","city":"Palo Alto","state":"CA","lat":"37.4334","long":"-122.1842"},{"zipcode":"94306","city":"Palo Alto","state":"CA","lat":"37.418","long":"-122.1274"},{"zipcode":"94309","city":"Palo Alto","state":"CA","lat":"37.4419","long":"-122.143"},{"zipcode":"95050","city":"Santa Clara","state":"CA","lat":"37.3492","long":"-121.953"},{"zipcode":"95051","city":"Santa Clara","state":"CA","lat":"37.3483","long":"-121.9844"},{"zipcode":"95052","city":"Santa Clara","state":"CA","lat":"37.3522","long":"-121.9583"},{"zipcode":"95053","city":"Santa Clara","state":"CA","lat":"37.3498","long":"-121.9378"},{"zipcode":"95054","city":"Santa Clara","state":"CA","lat":"37.3924","long":"-121.9623"},{"zipcode":"95055","city":"Santa Clara","state":"CA","lat":"37.3451","long":"-121.9769"},{"zipcode":"95056","city":"Santa Clara","state":"CA","lat":"37.3997","long":"-121.9608"},{"zipcode":"95101","city":"San Jose","state":"CA","lat":"37.3894","long":"-121.8868"},{"zipcode":"95103","city":"San Jose","state":"CA","lat":"37.3378","long":"-121.8908"},{"zipcode":"95106","city":"San Jose","state":"CA","lat":"37.3378","long":"-121.8908"},{"zipcode":"95108","city":"San Jose","state":"CA","lat":"37.3378","long":"-121.8908"},{"zipcode":"95109","city":"San Jose","state":"CA","lat":"37.3378","long":"-121.8908"},{"zipcode":"95110","city":"San Jose","state":"CA","lat":"37.3391","long":"-121.9016"},{"zipcode":"95111","city":"San Jose","state":"CA","lat":"37.2827","long":"-121.8265"},{"zipcode":"95112","city":"San Jose","state":"CA","lat":"37.3476","long":"-121.887"},{"zipcode":"95113","city":"San Jose","state":"CA","lat":"37.3329","long":"-121.8916"},{"zipcode":"95115","city":"San Jose","state":"CA","lat":"37.3378","long":"-121.8908"},{"zipcode":"95116","city":"San Jose","state":"CA","lat":"37.3518","long":"-121.8508"},{"zipcode":"95117","city":"San Jose","state":"CA","lat":"37.3108","long":"-121.9623"},{"zipcode":"95118","city":"San Jose","state":"CA","lat":"37.2568","long":"-121.8896"},{"zipcode":"95119","city":"San Jose","state":"CA","lat":"37.2329","long":"-121.7875"},{"zipcode":"95120","city":"San Jose","state":"CA","lat":"37.2144","long":"-121.8574"},{"zipcode":"95121","city":"San Jose","state":"CA","lat":"37.3042","long":"-121.8099"},{"zipcode":"95122","city":"San Jose","state":"CA","lat":"37.3293","long":"-121.8339"},{"zipcode":"95123","city":"San Jose","state":"CA","lat":"37.2458","long":"-121.8306"},{"zipcode":"95124","city":"San Jose","state":"CA","lat":"37.2563","long":"-121.9229"},{"zipcode":"95125","city":"San Jose","state":"CA","lat":"37.296","long":"-121.8939"},{"zipcode":"95126","city":"San Jose","state":"CA","lat":"37.3249","long":"-121.9153"},{"zipcode":"95127","city":"San Jose","state":"CA","lat":"37.3692","long":"-121.8208"},{"zipcode":"95128","city":"San Jose","state":"CA","lat":"37.3163","long":"-121.9356"},{"zipcode":"95129","city":"San Jose","state":"CA","lat":"37.3066","long":"-122.0002"},{"zipcode":"95130","city":"San Jose","state":"CA","lat":"37.2886","long":"-121.9818"},{"zipcode":"95131","city":"San Jose","state":"CA","lat":"37.3864","long":"-121.88"},{"zipcode":"95132","city":"San Jose","state":"CA","lat":"37.4031","long":"-121.8585"},{"zipcode":"95133","city":"San Jose","state":"CA","lat":"37.3729","long":"-121.856"},{"zipcode":"95134","city":"San Jose","state":"CA","lat":"37.4087","long":"-121.9406"},{"zipcode":"95135","city":"San Jose","state":"CA","lat":"37.2974","long":"-121.7562"},{"zipcode":"95136","city":"San Jose","state":"CA","lat":"37.2685","long":"-121.849"},{"zipcode":"95138","city":"San Jose","state":"CA","lat":"37.2602","long":"-121.7709"},{"zipcode":"95139","city":"San Jose","state":"CA","lat":"37.2252","long":"-121.7687"},{"zipcode":"95141","city":"San Jose","state":"CA","lat":"37.3394","long":"-121.895"},{"zipcode":"95148","city":"San Jose","state":"CA","lat":"37.3304","long":"-121.7913"},{"zipcode":"95150","city":"San Jose","state":"CA","lat":"37.3866","long":"-121.897"},{"zipcode":"95151","city":"San Jose","state":"CA","lat":"37.3198","long":"-121.8262"},{"zipcode":"95152","city":"San Jose","state":"CA","lat":"37.4022","long":"-121.847"},{"zipcode":"95153","city":"San Jose","state":"CA","lat":"37.2488","long":"-121.8459"},{"zipcode":"95154","city":"San Jose","state":"CA","lat":"37.2649","long":"-121.9139"},{"zipcode":"95155","city":"San Jose","state":"CA","lat":"37.31","long":"-121.9011"},{"zipcode":"95156","city":"San Jose","state":"CA","lat":"37.3576","long":"-121.8416"},{"zipcode":"95157","city":"San Jose","state":"CA","lat":"37.3008","long":"-121.9777"},{"zipcode":"95158","city":"San Jose","state":"CA","lat":"37.2625","long":"-121.8779"},{"zipcode":"95159","city":"San Jose","state":"CA","lat":"37.3179","long":"-121.9349"},{"zipcode":"95160","city":"San Jose","state":"CA","lat":"37.2187","long":"-121.8601"},{"zipcode":"95161","city":"San Jose","state":"CA","lat":"37.3894","long":"-121.8868"},{"zipcode":"95164","city":"San Jose","state":"CA","lat":"37.3916","long":"-121.9203"},{"zipcode":"95170","city":"San Jose","state":"CA","lat":"37.3103","long":"-122.0093"},{"zipcode":"95172","city":"San Jose","state":"CA","lat":"37.334","long":"-121.8847"},{"zipcode":"95173","city":"San Jose","state":"CA","lat":"37.3352","long":"-121.8938"},{"zipcode":"95190","city":"San Jose","state":"CA","lat":"37.3894","long":"-121.8868"},{"zipcode":"95191","city":"San Jose","state":"CA","lat":"37.3262","long":"-121.9158"},{"zipcode":"95192","city":"San Jose","state":"CA","lat":"37.3383","long":"-121.8801"},{"zipcode":"95193","city":"San Jose","state":"CA","lat":"37.2441","long":"-121.8287"},{"zipcode":"95194","city":"San Jose","state":"CA","lat":"37.3894","long":"-121.8868"},{"zipcode":"95196","city":"San Jose","state":"CA","lat":"37.3338","long":"-121.8894"}]